TDRS 3                  
1 19548U 88091B   22262.91091146 -.00000297  00000+0  00000+0 0  9995
2 19548  13.6472 350.5735 0035148 326.5185 320.7070  1.00278343111663
HST                     
1 20580U 90037B   22262.71373191  .00002138  00000+0  11443-3 0  9999
2 20580  28.4696 264.0758 0002346 336.2958 188.3414 15.10888760580483
TDRS 5                  
1 21639U 91054B   22263.50605031  .00000086  00000+0  00000+0 0  9997
2 21639  14.2310   3.8948 0022239   1.7596   8.2958  1.00269023114014
TDRS 6                  
1 22314U 93003B   22262.42031019 -.00000295  00000+0  00000+0 0  9996
2 22314  14.1376   7.1547 0011037 131.6058 324.8333  1.00279559108706
TDRS 7                  
1 23613U 95035B   22262.87395557 -.00000200  00000+0  00000+0 0  9991
2 23613  13.9424 357.8477 0025947  60.0545 340.1200  1.00277769 99454
ISS (ZARYA)             
1 25544U 98067A   22263.43414493  .00008403  00000+0  15407-3 0  9991
2 25544  51.6428 224.7061 0002435 273.0626 231.4327 15.50180673359959
LANDSAT 7               
1 25682U 99020A   22263.50179071  .00000277  00000+0  67231-4 0  9996
2 25682  97.9706 307.9466 0001436  99.1021 261.0347 14.59803082246436
TERRA                   
1 25994U 99068A   22263.51067332  .00000247  00000+0  64683-4 0  9996
2 25994  98.1294 333.2155 0001136  85.0745 333.7002 14.57156136210466
TDRS 8                  
1 26388U 00034A   22263.38799517 -.00000235  00000+0  00000+0 0  9997
2 26388  10.5152  41.8810 0017808 345.7039 200.6768  1.00275203 81479
TIMED                   
1 26998U 01055B   22262.99391648  .00000678  00000+0  76468-4 0  9993
2 26998  74.0705  91.2824 0001991 285.2730  74.8231 14.88794166127214
TDRS 9                  
1 27389U 02011A   22262.83590954 -.00000289  00000+0  00000+0 0  9998
2 27389   9.2173  59.9389 0022071 297.0987 240.3357  1.00272124 76747
AQUA                    
1 27424U 02022A   22263.10393814  .00000541  00000+0  12953-3 0  9991
2 27424  98.2525 204.1238 0001032  55.1068   1.8066 14.57389653 84018
TDRS 10                 
1 27566U 02055A   22262.67744840  .00000086  00000+0  00000+0 0  9994
2 27566   8.3722  49.4181 0005102 351.7782  30.1284  1.00270536 72537
SORCE                   
1 27651U 03004A   22262.83798949  .00001349  00000+0  15056-3 0  9995
2 27651  39.9961  50.3987 0021994  54.4092 305.8744 14.90117973 67153
AURA                    
1 28376U 04026A   22262.84815996  .00000523  00000+0  12617-3 0  9991
2 28376  98.2144 204.8490 0001286  79.3698 280.7645 14.57100500966974
SWIFT                   
1 28485U 04047A   22263.45201686  .00003851  00000+0  22053-3 0  9990
2 28485  20.5583   3.2528 0010912  64.4326 295.7236 15.06912425977978
THEMIS A                
1 30580U 07004A   22263.45858627 -.00000645  00000+0 -29447-2 0  9991
2 30580  13.4994 335.6405 8375469 185.1155 148.3515  0.87836605 53965
THEMIS D                
1 30797U 07004D   22263.15192090 -.00000640  00000+0  00000+0 0  9998
2 30797   9.3053 324.7022 8332175 199.0979  63.0588  0.87838737 53482
THEMIS E                
1 30798U 07004E   22263.46312885 -.00000661  00000+0  00000+0 0  9992
2 30798  10.2780 338.7067 8322684 187.1612 151.5362  0.87842190 53909
AIM                     
1 31304U 07015A   22262.50850109  .00008088  00000+0  39058-3 0  9997
2 31304  97.8513 185.2847 0006509  63.2408 296.9491 15.18920910845467
FGRST (GLAST)           
1 33053U 08029A   22262.26350450  .00001686  00000+0  77652-4 0  9993
2 33053  25.5819 247.3881 0011983 186.1581 173.8808 15.12411268787919
WISE                    
1 36119U 09071A   22262.84167298  .00006683  00000+0  20147-3 0  9995
2 36119  97.2337 295.4101 0001840  25.4964 334.6370 15.34632103709974
TDRS 11                 
1 39070U 13004A   22263.50605031  .00000075  00000+0  00000+0 0  9992
2 39070   2.8531 348.8033 0005226  82.5589 295.7843  1.00274237 35294
TDRS 12                 
1 39504U 14004A   22263.42092390 -.00000274  00000+0  00000+0 0  9996
2 39504   3.7848 348.9704 0003704 165.0597 315.7294  1.00265297 31754
GPM-CORE                
1 39574U 14009C   22263.12126291  .00019186  00000+0  27869-3 0  9990
2 39574  65.0000 226.1024 0010136 270.1911  89.8073 15.55821230486342
MMS 1                   
1 40482U 15011A   22262.53401466 -.00002061  00000+0  00000+0 0  9997
2 40482  30.8334  97.8204 8787224  60.8008 359.1162  0.28418978 13571
MMS 2                   
1 40483U 15011B   22262.79054503 -.00002036  00000+0  00000+0 0  9994
2 40483  30.8362  97.8154 8789823  60.8006  25.3467  0.28408510 13630
MMS 3                   
1 40484U 15011C   22262.79054503 -.00002034  00000+0  00000+0 0  9993
2 40484  30.8343  97.7938 8788249  60.8142  25.3935  0.28419052 13319
MMS 4                   
1 40485U 15011D   22262.79748948 -.00002034  00000+0  00000+0 0  9997
2 40485  30.8316  97.8338 8788247  60.7762  26.0846  0.28408835 13529
TDRS 13                 
1 42915U 17047A   22263.14216361 -.00000103  00000+0  00000+0 0  9992
2 42915   4.3486 334.3677 0016588 125.6779 298.7085  1.00272779 18683
JPSS-1                  
1 43013U 17073A   22263.44783485  .00000044  00000+0  41649-4 0  9992
2 43013  98.7204 200.5321 0001446 103.9208 256.2130 14.19543969250708
